{
  "type": "FeatureCollection",
  "features": [
    {
      "type": "Feature",
      "properties": {
        "norad_id": 55973,
        "name": "TIANMU-1 03",
        "group": "weather",
        "lat": -66.08676061499995,
        "lon": 175.51778330451953,
        "alt_km": 450.60168109483493,
        "timestamp": "2025-12-21T07:34:34.187828+00:00",
        "meta_object_name": "TIANMU-1 03",
        "meta_object_id": "2023-039A",
        "meta_epoch": "2025-12-20T22:31:03.629280",
        "meta_mean_motion": 15.41144788,
        "meta_eccentricity": 0.00040201,
        "meta_inclination": 97.5106,
        "meta_ra_of_asc_node": 157.8198,
        "meta_arg_of_pericenter": 37.5538,
        "meta_mean_anomaly": 322.5989,
        "meta_ephemeris_type": 0,
        "meta_classification_type": "U",
        "meta_norad_cat_id": 55973,
        "meta_element_set_no": 999,
        "meta_rev_at_epoch": 15332,
        "meta_bstar": 0.00026919934,
        "meta_mean_motion_dot": 0.00011071,
        "meta_mean_motion_ddot": 0,
        "tle_line1": "1 55973U 23039A   25354.93823645  .00011071  00000+0  26920-3 0  9996",
        "tle_line2": "2 55973  97.5106 157.8198 0004020  37.5538 322.5989 15.41144788153320"
      },
      "geometry": {
        "type": "Point",
        "coordinates": [
          175.51778330451953,
          -66.08676061499995
        ]
      }
    },
    {
      "type": "Feature",
      "properties": {
        "norad_id": 55974,
        "name": "TIANMU-1 04",
        "group": "weather",
        "lat": 56.493940086944676,
        "lon": 145.91106796231034,
        "alt_km": 433.5297956569366,
        "timestamp": "2025-12-21T07:34:34.187837+00:00",
        "meta_object_name": "TIANMU-1 04",
        "meta_object_id": "2023-039B",
        "meta_epoch": "2025-12-20T21:58:52.387104",
        "meta_mean_motion": 15.41485063,
        "meta_eccentricity": 0.00046272,
        "meta_inclination": 97.5037,
        "meta_ra_of_asc_node": 156.9846,
        "meta_arg_of_pericenter": 31.5676,
        "meta_mean_anomaly": 328.5847,
        "meta_ephemeris_type": 0,
        "meta_classification_type": "U",
        "meta_norad_cat_id": 55974,
        "meta_element_set_no": 999,
        "meta_rev_at_epoch": 15332,
        "meta_bstar": 0.00025331547,
        "meta_mean_motion_dot": 0.00010531,
        "meta_mean_motion_ddot": 0,
        "tle_line1": "1 55974U 23039B   25354.91588411  .00010531  00000+0  25332-3 0  9990",
        "tle_line2": "2 55974  97.5037 156.9846 0004627  31.5676 328.5847 15.41485063153327"
      },
      "geometry": {
        "type": "Point",
        "coordinates": [
          145.91106796231034,
          56.493940086944676
        ]
      }
    },
    {
      "type": "Feature",
      "properties": {
        "norad_id": 55975,
        "name": "TIANMU-1 05",
        "group": "weather",
        "lat": 75.37044582857554,
        "lon": 127.53787104578119,
        "alt_km": 433.11524322195964,
        "timestamp": "2025-12-21T07:34:34.187846+00:00",
        "meta_object_name": "TIANMU-1 05",
        "meta_object_id": "2023-039C",
        "meta_epoch": "2025-12-20T21:53:30.286176",
        "meta_mean_motion": 15.41101642,
        "meta_eccentricity": 0.00040923,
        "meta_inclination": 97.5084,
        "meta_ra_of_asc_node": 157.4735,
        "meta_arg_of_pericenter": 56.1602,
        "meta_mean_anomaly": 304.0034,
        "meta_ephemeris_type": 0,
        "meta_classification_type": "U",
        "meta_norad_cat_id": 55975,
        "meta_element_set_no": 999,
        "meta_rev_at_epoch": 15330,
        "meta_bstar": 0.00025626781,
        "meta_mean_motion_dot": 0.00010519,
        "meta_mean_motion_ddot": 0,
        "tle_line1": "1 55975U 23039C   25354.91215609  .00010519  00000+0  25627-3 0  9990",
        "tle_line2": "2 55975  97.5084 157.4735 0004092  56.1602 304.0034 15.41101642153304"
      },
      "geometry": {
        "type": "Point",
        "coordinates": [
          127.53787104578119,
          75.37044582857554
        ]
      }
    },
    {
      "type": "Feature",
      "properties": {
        "norad_id": 55976,
        "name": "TIANMU-1 06",
        "group": "weather",
        "lat": 46.23059730129928,
        "lon": 150.4453437860804,
        "alt_km": 434.5897785451816,
        "timestamp": "2025-12-21T07:34:34.187856+00:00",
        "meta_object_name": "TIANMU-1 06",
        "meta_object_id": "2023-039D",
        "meta_epoch": "2025-12-20T22:01:36.611040",
        "meta_mean_motion": 15.41536982,
        "meta_eccentricity": 0.0004386,
        "meta_inclination": 97.5094,
        "meta_ra_of_asc_node": 157.9512,
        "meta_arg_of_pericenter": 50.2399,
        "meta_mean_anomaly": 309.9234,
        "meta_ephemeris_type": 0,
        "meta_classification_type": "U",
        "meta_norad_cat_id": 55976,
        "meta_element_set_no": 999,
        "meta_rev_at_epoch": 15332,
        "meta_bstar": 0.00025642946,
        "meta_mean_motion_dot": 0.0001068,
        "meta_mean_motion_ddot": 0,
        "tle_line1": "1 55976U 23039D   25354.91778485  .00010680  00000+0  25643-3 0  9994",
        "tle_line2": "2 55976  97.5094 157.9512 0004386  50.2399 309.9234 15.41536982153325"
      },
      "geometry": {
        "type": "Point",
        "coordinates": [
          150.4453437860804,
          46.23059730129928
        ]
      }
    },
    {
      "type": "Feature",
      "properties": {
        "norad_id": 56232,
        "name": "FENGYUN 3G",
        "group": "weather",
        "lat": -28.329406843069254,
        "lon": 30.107463975992793,
        "alt_km": 402.7111380144888,
        "timestamp": "2025-12-21T07:34:34.187865+00:00",
        "meta_object_name": "FENGYUN 3G",
        "meta_object_id": "2023-055A",
        "meta_epoch": "2025-12-20T22:55:32.952864",
        "meta_mean_motion": 15.54098003,
        "meta_eccentricity": 0.00092884,
        "meta_inclination": 49.9915,
        "meta_ra_of_asc_node": 185.0447,
        "meta_arg_of_pericenter": 185.5701,
        "meta_mean_anomaly": 174.5164,
        "meta_ephemeris_type": 0,
        "meta_classification_type": "U",
        "meta_norad_cat_id": 56232,
        "meta_element_set_no": 999,
        "meta_rev_at_epoch": 15230,
        "meta_bstar": 0.00035603262,
        "meta_mean_motion_dot": 0.00023207,
        "meta_mean_motion_ddot": 0,
        "tle_line1": "1 56232U 23055A   25354.95524251  .00023207  00000+0  35603-3 0  9998",
        "tle_line2": "2 56232  49.9915 185.0447 0009288 185.5701 174.5164 15.54098003152304"
      },
      "geometry": {
        "type": "Point",
        "coordinates": [
          30.107463975992793,
          -28.329406843069254
        ]
      }
    },
    {
      "type": "Feature",
      "properties": {
        "norad_id": 57166,
        "name": "METEOR-M2 3",
        "group": "weather",
        "lat": -80.78955954782565,
        "lon": 159.10013031166383,
        "alt_km": 818.5075213192686,
        "timestamp": "2025-12-21T07:34:34.187877+00:00",
        "meta_object_name": "METEOR-M2 3",
        "meta_object_id": "2023-091A",
        "meta_epoch": "2025-12-20T21:53:42.625824",
        "meta_mean_motion": 14.24026963,
        "meta_eccentricity": 0.00034529,
        "meta_inclination": 98.6366,
        "meta_ra_of_asc_node": 48.3085,
        "meta_arg_of_pericenter": 344.2508,
        "meta_mean_anomaly": 15.8563,
        "meta_ephemeris_type": 0,
        "meta_classification_type": "U",
        "meta_norad_cat_id": 57166,
        "meta_element_set_no": 999,
        "meta_rev_at_epoch": 12914,
        "meta_bstar": 1.7362611e-05,
        "meta_mean_motion_dot": -4e-08,
        "meta_mean_motion_ddot": 0,
        "tle_line1": "1 57166U 23091A   25354.91229891 -.00000004  00000+0  17363-4 0  9998",
        "tle_line2": "2 57166  98.6366  48.3085 0003452 344.2508  15.8563 14.24026963129145"
      },
      "geometry": {
        "type": "Point",
        "coordinates": [
          159.10013031166383,
          -80.78955954782565
        ]
      }
    },
    {
      "type": "Feature",
      "properties": {
        "norad_id": 57399,
        "name": "TIANMU-1 07",
        "group": "weather",
        "lat": 61.5372539463015,
        "lon": 31.324478898057762,
        "alt_km": 471.6811266689019,
        "timestamp": "2025-12-21T07:34:34.187887+00:00",
        "meta_object_name": "TIANMU-1 07",
        "meta_object_id": "2023-101A",
        "meta_epoch": "2025-12-20T21:52:30.793728",
        "meta_mean_motion": 15.28178109,
        "meta_eccentricity": 0.00052781,
        "meta_inclination": 97.2865,
        "meta_ra_of_asc_node": 44.5813,
        "meta_arg_of_pericenter": 60.7256,
        "meta_mean_anomaly": 299.4511,
        "meta_ephemeris_type": 0,
        "meta_classification_type": "U",
        "meta_norad_cat_id": 57399,
        "meta_element_set_no": 999,
        "meta_rev_at_epoch": 13440,
        "meta_bstar": 0.00018435477,
        "meta_mean_motion_dot": 4.991e-05,
        "meta_mean_motion_ddot": 0,
        "tle_line1": "1 57399U 23101A   25354.91146752  .00004991  00000+0  18435-3 0  9990",
        "tle_line2": "2 57399  97.2865  44.5813 0005278  60.7256 299.4511 15.28178109134400"
      },
      "geometry": {
        "type": "Point",
        "coordinates": [
          31.324478898057762,
          61.5372539463015
        ]
      }
    }
  ]
}